{
"type": "FeatureCollection",
"name": "la_magdalena_L4",
"crs": { "type": "name", "properties": { "name": "urn:ogc:def:crs:OGC:1.3:CRS84" } },
"features": [
{ "type": "Feature", "properties": { "name": "Lote 4", "folders": "lote_4_perimetro", "description": "", "altitude": 0.0, "alt_mode": "", "time_begin": "", "time_end": "", "time_when": "", "extrude": "0", "tessellate": "1", "visibility": "0" }, "geometry": { "type": "MultiPolygon", "coordinates": [ [ [ [ -63.798611834246998, -33.9819790346384, 0.0 ], [ -63.798627870973, -33.9820320033907, 0.0 ], [ -63.798822126688499, -33.982083958952998, 0.0 ], [ -63.799105655675397, -33.982102706003403, 0.0 ], [ -63.799565776641401, -33.982104653596799, 0.0 ], [ -63.799773015145298, -33.982066211956898, 0.0 ], [ -63.7997982495475, -33.981940403690103, 0.0 ], [ -63.809416043591298, -33.981861394969897, 0.0 ], [ -63.8094108544039, -33.993512054525702, 0.0 ], [ -63.788749307668098, -33.993667958447098, 0.0 ], [ -63.788762159596402, -33.993444446625503, 0.0 ], [ -63.788905187936301, -33.988646494542898, 0.0 ], [ -63.788929823830003, -33.988519413006898, 0.0 ], [ -63.788991746087703, -33.988413175174799, 0.0 ], [ -63.7890633854296, -33.988274654976003, 0.0 ], [ -63.789124619737102, -33.987738549284003, 0.0 ], [ -63.789083465159997, -33.987358029045303, 0.0 ], [ -63.788944404093002, -33.9871664087485, 0.0 ], [ -63.789023490199398, -33.985212179137697, 0.0 ], [ -63.7890840998257, -33.982775481121998, 0.0 ], [ -63.789251217969003, -33.982545898298198, 0.0 ], [ -63.789627382734103, -33.982298973067202, 0.0 ], [ -63.790012965514002, -33.982036987230103, 0.0 ], [ -63.798611834246998, -33.9819790346384, 0.0 ] ] ] ] } }
]
}
